{
    "links": {
        "self": "http://www.neowsapp.com/rest/v1/neo/3835976?api_key=iIulBulltgU6a56xZRHN4H3l9WmuAYTsLGpBGhQ2"
    },
    "id": "3835976",
    "neo_reference_id": "3835976",
    "name": "(2018 VN1)",
    "designation": "2018 VN1",
    "nasa_jpl_url": "http://ssd.jpl.nasa.gov/sbdb.cgi?sstr=3835976",
    "absolute_magnitude_h": 26.2,
    "estimated_diameter": {
        "kilometers": {
            "estimated_diameter_min": 0.0152951935,
            "estimated_diameter_max": 0.0342010925
        },
        "meters": {
            "estimated_diameter_min": 15.2951935344,
            "estimated_diameter_max": 34.201092472
        },
        "miles": {
            "estimated_diameter_min": 0.0095039897,
            "estimated_diameter_max": 0.021251567
        },
        "feet": {
            "estimated_diameter_min": 50.1810827555,
            "estimated_diameter_max": 112.2083122258
        }
    },
    "is_potentially_hazardous_asteroid": false,
    "close_approach_data": [
        {
            "close_approach_date": "2018-11-06",
            "close_approach_date_full": "2018-Nov-06 20:04",
            "epoch_date_close_approach": 1541534640000,
            "relative_velocity": {
                "kilometers_per_second": "5.1781005516",
                "kilometers_per_hour": "18641.1619858039",
                "miles_per_hour": "11582.8931239013"
            },
            "miss_distance": {
                "astronomical": "0.0222707531",
                "lunar": "8.6633229559",
                "kilometers": "3331657.227055897",
                "miles": "2070195.8046374986"
            },
            "orbiting_body": "Earth"
        }
    ],
    "orbital_data": {
        "orbit_id": "8",
        "orbit_determination_date": "2020-09-11 07:41:01",
        "first_observation_date": "2018-11-03",
        "last_observation_date": "2018-11-12",
        "data_arc_in_days": 9,
        "observations_used": 63,
        "orbit_uncertainty": "7",
        "minimum_orbit_intersection": ".0231935",
        "jupiter_tisserand_invariant": "4.189",
        "epoch_osculation": "2459000.5",
        "eccentricity": ".3864178430173113",
        "semi_major_axis": "1.650839878838117",
        "inclination": "3.351308208336631",
        "ascending_node_longitude": "228.3637806962681",
        "orbital_period": "774.7397766212455",
        "perihelion_distance": "1.012925893690533",
        "perihelion_argument": "180.4204556818685",
        "aphelion_distance": "2.288753863985702",
        "perihelion_time": "2459207.807696092034",
        "mean_anomaly": "263.6698865280831",
        "mean_motion": ".464672152977627",
        "equinox": "J2000",
        "orbit_class": {
            "orbit_class_type": "APO",
            "orbit_class_description": "Near-Earth asteroid orbits which cross the Earth’s orbit similar to that of 1862 Apollo",
            "orbit_class_range": "a (semi-major axis) > 1.0 AU; q (perihelion) < 1.017 AU"
        }
    },
    "is_sentry_object": false
}